CCSDS_OMM_VERS,COMMENT,CREATION_DATE,ORIGINATOR,OBJECT_NAME,OBJECT_ID,CENTER_NAME,REF_FRAME,TIME_SYSTEM,MEAN_ELEMENT_THEORY,EPOCH,MEAN_MOTION,ECCENTRICITY,INCLINATION,RA_OF_ASC_NODE,ARG_OF_PERICENTER,MEAN_ANOMALY,EPHEMERIS_TYPE,CLASSIFICATION_TYPE,NORAD_CAT_ID,ELEMENT_SET_NO,REV_AT_EPOCH,BSTAR,MEAN_MOTION_DOT,MEAN_MOTION_DDOT,SEMIMAJOR_AXIS,PERIOD,APOAPSIS,PERIAPSIS,OBJECT_TYPE,RCS_SIZE,COUNTRY_CODE,LAUNCH_DATE,SITE,DECAY_DATE,FILE,GP_ID,TLE_LINE0,TLE_LINE1,TLE_LINE2
"2.0","GENERATED VIA SPACE-TRACK.ORG API","2020-02-08T22:20:15","18 SPCS","IRIDIUM 153","2017-083J","EARTH","TEME","UTC","SGP4","2020-02-08T19:02:03.142752","14.34219047","0.00031150","86.4016","180.1351","91.4293","268.7259","0","U","43078","999","11269","0.00001363300000","0.00000058","0.0000000000000","7155.799","100.403","779.893","775.435","PAYLOAD","LARGE","US","2017-12-23","AFWTR","","2697254","148334720","0 IRIDIUM 153","1 43078U 17083J   20039.79309193  .00000058  00000-0  13633-4 0  9999","2 43078  86.4016 180.1351 0003115  91.4293 268.7259 14.34219047112699"
"2.0","GENERATED VIA SPACE-TRACK.ORG API","2020-02-09T01:25:52","18 SPCS","COSMOS 1867","1987-060A","EARTH","TEME","UTC","SGP4","2020-02-08T11:32:01.293792","14.31109310","0.00149550","65.0107","44.4860","260.1305","99.8091","0","U","18187","999","70204","0.00000560500000","-0.00000085","0.0000000000000","7166.162","100.621","798.744","777.310","PAYLOAD","LARGE","CIS","1987-07-10","TTMTR","","2697385","148342069","0 COSMOS 1867","1 18187U 87060A   20039.48057053 -.00000085 +00000-0 +56050-5 0  9997","2 18187 065.0107 044.4860 0014955 260.1305 099.8091 14.31109310702045"
"2.0","GENERATED VIA SPACE-TRACK.ORG API","2020-02-08T21:39:57","18 SPCS","COSMOS 1867","1987-060A","EARTH","TEME","UTC","SGP4","2020-02-08T09:51:23.596128","14.31109298","0.00149570","65.0107","44.6816","260.1238","99.8158","0","U","18187","999","70203","0.00000561890000","-0.00000085","0.0000000000000","7166.162","100.621","798.745","777.308","PAYLOAD","LARGE","CIS","1987-07-10","TTMTR","","2697249","148299821","0 COSMOS 1867","1 18187U 87060A   20039.41068977 -.00000085 +00000-0 +56189-5 0  9990","2 18187 065.0107 044.6816 0014957 260.1238 099.8158 14.31109298702033"
"2.0","GENERATED VIA SPACE-TRACK.ORG API","2020-02-08T06:20:14","18 SPCS","COSMOS 1867","1987-060A","EARTH","TEME","UTC","SGP4","2020-02-08T03:08:52.805472","14.31109275","0.00149590","65.0107","45.4639","260.1354","99.8042","0","U","18187","999","70222","0.00000543340000","-0.00000086","0.0000000000000","7166.162","100.621","798.747","777.307","PAYLOAD","LARGE","CIS","1987-07-10","TTMTR","","2696954","148288854","0 COSMOS 1867","1 18187U 87060A   20039.13116673 -.00000086  00000-0  54334-5 0  9997","2 18187  65.0107  45.4639 0014959 260.1354  99.8042 14.31109275702224"
"2.0","GENERATED VIA SPACE-TRACK.ORG API","2020-02-08T21:39:57","18 SPCS","IRIDIUM 153","2017-083J","EARTH","TEME","UTC","SGP4","2020-02-08T02:17:23.200224","14.34218961","0.00031220","86.4015","180.4262","92.1357","268.0197","0","U","43078","999","11259","0.00001285800000","0.00000056","0.0000000000000","7155.800","100.403","779.899","775.431","PAYLOAD","LARGE","US","2017-12-23","AFWTR","","2697249","148313366","0 IRIDIUM 153","1 43078U 17083J   20039.09540741 +.00000056 +00000-0 +12858-4 0  9994","2 43078 086.4015 180.4262 0003122 092.1357 268.0197 14.34218961112596"
"2.0","GENERATED VIA SPACE-TRACK.ORG API","2020-02-08T01:20:20","18 SPCS","IRIDIUM 153","2017-083J","EARTH","TEME","UTC","SGP4","2020-02-07T21:15:59.214528","14.34218961","0.00031190","86.4015","180.5136","92.3513","267.8040","0","U","43078","999","11256","0.00001329000000","0.00000057","0.0000000000000","7155.800","100.403","779.897","775.433","PAYLOAD","LARGE","US","2017-12-23","AFWTR","","2696928","148267209","0 IRIDIUM 153","1 43078U 17083J   20038.88610202 +.00000057 +00000-0 +13290-4 0  9992","2 43078 086.4015 180.5136 0003119 092.3513 267.8040 14.34218961112560"
"2.0","GENERATED VIA SPACE-TRACK.ORG API","2020-02-08T01:20:20","18 SPCS","COSMOS 1867","1987-060A","EARTH","TEME","UTC","SGP4","2020-02-07T17:05:06.616896","14.31109256","0.00149660","65.0107","46.6374","260.1398","99.7997","0","U","18187","999","70193","0.00000931990000","-0.00000076","0.0000000000000","7166.162","100.621","798.752","777.302","PAYLOAD","LARGE","CIS","1987-07-10","TTMTR","","2696928","148253665","0 COSMOS 1867","1 18187U 87060A   20038.71188214 -.00000076 +00000-0 +93199-5 0  9991","2 18187 065.0107 046.6374 0014966 260.1398 099.7997 14.31109256701933"
"2.0","GENERATED VIA SPACE-TRACK.ORG API","2020-02-07T14:20:15","18 SPCS","IRIDIUM 153","2017-083J","EARTH","TEME","UTC","SGP4","2020-02-07T11:13:11.242272","14.34218964","0.00031240","86.4014","180.6883","92.7995","267.3559","0","U","43078","999","11250","0.00001501400000","0.00000062","0.0000000000000","7155.800","100.403","779.900","775.429","PAYLOAD","LARGE","US","2017-12-23","AFWTR","","2696545","148220470","0 IRIDIUM 153","1 43078U 17083J   20038.46749123  .00000062  00000-0  15014-4 0  9993","2 43078  86.4014 180.6883 0003124  92.7995 267.3559 14.34218964112500"
"2.0","GENERATED VIA SPACE-TRACK.ORG API","2020-02-07T16:36:20","18 SPCS","COSMOS 1867","1987-060A","EARTH","TEME","UTC","SGP4","2020-02-07T10:22:35.826240","14.31109219","0.00149720","65.0106","47.4197","260.1189","99.8205","0","U","18187","999","70189","0.00001060600000","-0.00000072","0.0000000000000","7166.162","100.621","798.756","777.298","PAYLOAD","LARGE","CIS","1987-07-10","TTMTR","","2696715","148228535","0 COSMOS 1867","1 18187U 87060A   20038.43235910 -.00000072 +00000-0 +10606-4 0  9993","2 18187 065.0106 047.4197 0014972 260.1189 099.8205 14.31109219701896"
"2.0","GENERATED VIA SPACE-TRACK.ORG API","2020-02-07T05:25:45","18 SPCS","IRIDIUM 153","2017-083J","EARTH","TEME","UTC","SGP4","2020-02-06T21:49:27.287040","14.34218888","0.00031200","86.4014","180.9211","93.3375","266.8178","0","U","43078","999","11242","0.00001531400000","0.00000063","0.0000000000000","7155.800","100.403","779.897","775.432","PAYLOAD","LARGE","US","2017-12-23","AFWTR","","2696382","148195487","0 IRIDIUM 153","1 43078U 17083J   20037.90934360 +.00000063 +00000-0 +15314-4 0  9994","2 43078 086.4014 180.9211 0003120 093.3375 266.8178 14.34218888112420"
"2.0","GENERATED VIA SPACE-TRACK.ORG API","2020-02-07T05:25:45","18 SPCS","COSMOS 1867","1987-060A","EARTH","TEME","UTC","SGP4","2020-02-06T17:36:18.834912","14.31109189","0.00149890","65.0106","49.3756","260.0610","99.8783","0","U","18187","999","70202","0.00001219900000","-0.00000068","0.0000000000000","7166.162","100.621","798.769","777.286","PAYLOAD","LARGE","CIS","1987-07-10","TTMTR","","2696382","148181945","0 COSMOS 1867","1 18187U 87060A   20037.73355133 -.00000068 +00000-0 +12199-4 0  9999","2 18187 065.0106 049.3756 0014989 260.0610 099.8783 14.31109189702027"
"2.0","GENERATED VIA SPACE-TRACK.ORG API","2020-02-06T16:46:50","18 SPCS","IRIDIUM 153","2017-083J","EARTH","TEME","UTC","SGP4","2020-02-06T08:25:43.324896","14.34218874","0.00031280","86.4013","181.1541","93.9564","266.1990","0","U","43078","999","11234","0.00001861500000","0.00000072","0.0000000000000","7155.800","100.403","779.903","775.427","PAYLOAD","LARGE","US","2017-12-23","AFWTR","","2696031","148167724","0 IRIDIUM 153","1 43078U 17083J   20037.35119589 +.00000072 +00000-0 +18615-4 0  9998","2 43078 086.4013 181.1541 0003128 093.9564 266.1990 14.34218874112343"
"2.0","GENERATED VIA SPACE-TRACK.ORG API","2020-02-06T16:46:50","18 SPCS","COSMOS 1867","1987-060A","EARTH","TEME","UTC","SGP4","2020-02-06T07:32:32.635104","14.31109180","0.00150020","65.0106","50.5491","259.9625","99.9766","0","U","18187","999","70173","0.00001278600000","-0.00000066","0.0000000000000","7166.162","100.621","798.778","777.277","PAYLOAD","LARGE","CIS","1987-07-10","TTMTR","","2696031","148154182","0 COSMOS 1867","1 18187U 87060A   20037.31426661 -.00000066 +00000-0 +12786-4 0  9998","2 18187 065.0106 050.5491 0015002 259.9625 099.9766 14.31109180701737"
"2.0","GENERATED VIA SPACE-TRACK.ORG API","2020-02-06T06:20:14","18 SPCS","IRIDIUM 153","2017-083J","EARTH","TEME","UTC","SGP4","2020-02-06T03:24:19.340928","14.34218832","0.00031290","86.4013","181.2415","94.1792","265.9761","0","U","43078","999","11231","0.00001882100000","0.00000072","0.0000000000000","7155.800","100.403","779.904","775.426","PAYLOAD","LARGE","US","2017-12-23","AFWTR","","2695880","148146036","0 IRIDIUM 153","1 43078U 17083J   20037.14189052  .00000072  00000-0  18821-4 0  9996","2 43078  86.4013 181.2415 0003129  94.1792 265.9761 14.34218832112315"
"2.0","GENERATED VIA SPACE-TRACK.ORG API","2020-02-06T01:51:16","18 SPCS","IRIDIUM 153","2017-083J","EARTH","TEME","UTC","SGP4","2020-02-05T20:42:27.359424","14.34218813","0.00031250","86.4013","181.3579","94.4527","265.7026","0","U","43078","999","11227","0.00001924500000","0.00000074","0.0000000000000","7155.800","100.403","779.901","775.429","PAYLOAD","LARGE","US","2017-12-23","AFWTR","","2695865","148144272","0 IRIDIUM 153","1 43078U 17083J   20036.86281666 +.00000074 +00000-0 +19245-4 0  9991","2 43078 086.4013 181.3579 0003125 094.4527 265.7026 14.34218813112278"
"2.0","GENERATED VIA SPACE-TRACK.ORG API","2020-02-05T14:40:19","18 SPCS","COSMOS 1867","1987-060A","EARTH","TEME","UTC","SGP4","2020-02-05T11:25:00.238944","14.31109139","0.00150200","65.0105","52.8961","259.9555","99.9835","0","U","18187","999","70184","0.00000999530000","-0.00000074","0.0000000000000","7166.162","100.621","798.791","777.264","PAYLOAD","LARGE","CIS","1987-07-10","TTMTR","","2695610","148081644","0 COSMOS 1867","1 18187U 87060A   20036.47569721 -.00000074  00000-0  99953-5 0  9990","2 18187  65.0105  52.8961 0015020 259.9555  99.9835 14.31109139701848"
